COMMENT,ORIGINATOR,NORAD_CAT_ID,OBJECT_NAME,OBJECT_TYPE,CLASSIFICATION_TYPE,INTLDES,EPOCH,EPOCH_MICROSECONDS,MEAN_MOTION,ECCENTRICITY,INCLINATION,RA_OF_ASC_NODE,ARG_OF_PERICENTER,MEAN_ANOMALY,EPHEMERIS_TYPE,ELEMENT_SET_NO,REV_AT_EPOCH,BSTAR,MEAN_MOTION_DOT,MEAN_MOTION_DDOT,FILE,TLE_LINE0,TLE_LINE1,TLE_LINE2,OBJECT_ID,OBJECT_NUMBER,SEMIMAJOR_AXIS,PERIOD,APOGEE,PERIGEE
"GENERATED VIA SPACETRACK.ORG API","JSPOC","3338","EXPLORER 40 (INJUN-5)","PAYLOAD","U","68066B","2016-01-13 19:51:56","370528","12.22804748","0.1133945","80.662","115.8138","171.3955","190.8528","0","999","11291","6.4777e-05","7.2e-07","0","1980270","0 EXPLORER 40 (INJUN-5)","1  3338U 68066B   16013.82773577 +.00000072 +00000-0 +64777-4 0  9994","2  3338 080.6620 115.8138 1133945 171.3955 190.8528 12.22804748112910","1968-066B","3338","7958.485","117.762","2482.799","677.902"
"GENERATED VIA SPACETRACK.ORG API","JSPOC","14057","COSMOS 1459","PAYLOAD","U","83042A","2016-01-13 19:51:59","79168","13.76495219","0.0050134","82.9746","115.9372","39.1311","109.9061","0","999","64189","5.4546e-05","6.9e-07","0","1980270","0 COSMOS 1459","1 14057U 83042A   16013.82776712 +.00000069 +00000-0 +54546-4 0  9998","2 14057 082.9746 115.9372 0050134 039.1311 109.9061 13.76495219641895","1983-042A","14057","7354.481","104.613","1013.217","939.475"
"GENERATED VIA SPACETRACK.ORG API","JSPOC","38744","TELKOM 3","PAYLOAD","U","12044A","2016-01-13 19:52:07","819392","12.08152001","0.1730619","49.8892","274.3397","163.8347","202.5706","0","999","13815","0.0015097","0.00084622","5.33e-06","1979915","0 TELKOM 3","1 38744U 12044A   16013.82786828  .00084622  53300-5  15097-2 0  9999","2 38744  49.8892 274.3397 1730619 163.8347 202.5706 12.08152001138152","2012-044A","38744","8022.704","119.190","3032.993","256.144"
"GENERATED VIA SPACETRACK.ORG API","JSPOC","40062","GONETS M 09 (M19)","PAYLOAD","U","14036B","2016-01-13 19:52:16","472352","12.42866732","0.0022398","82.5102","152.2977","176.4948","183.6296","0","999","6947","0","1e-07","0","1979947","0 GONETS M 09 (M19)","1 40062U 14036B   16013.82796843  .00000010  00000-0  00000+0 0  9994","2 40062  82.5102 152.2977 0022398 176.4948 183.6296 12.42866732 69470","2014-036B","40062","7872.611","115.861","1512.109","1476.843"
"GENERATED VIA SPACETRACK.ORG API","JSPOC","5118","SL-3 R/B","ROCKET BODY","U","71028B","2016-01-13 19:52:17","603328","15.1243171","0.004909","81.2561","30.5532","204.4701","155.4197","0","999","42552","9.2117e-05","1.673e-05","0","1979930","0 SL-3 R/B","1 05118U 71028B   16013.82798152  .00001673  00000-0  92117-4 0  9997","2 05118  81.2561  30.5532 0049090 204.4701 155.4197 15.12431710425523","1971-028B","5118","6906.923","95.210","562.694","494.882"
"GENERATED VIA SPACETRACK.ORG API","JSPOC","25649","GLOBALSTAR M022","PAYLOAD","U","99012A","2016-01-13 19:52:19","702848","12.0241217","0.0001622","52.0052","287.9138","199.9645","204.198","0","999","76234","0.00056434","-4e-07","0","1979923","0 GLOBALSTAR M022","1 25649U 99012A   16013.82800582 -.00000040  00000-0  56434-3 0  9991","2 25649  52.0052 287.9138 0001622 199.9645 204.1980 12.02412170762340","1999-012A","25649","8048.215","119.759","1671.385","1668.775"
"GENERATED VIA SPACETRACK.ORG API","JSPOC","22512","COSMOS 2234 (GLONASS)","PAYLOAD","U","93010A","2016-01-13 19:52:26","581152","2.13103553","0.0019878","64.0577","201.1196","201.1274","125.7084","0","999","17799","0","9.4e-07","0","1980270","0 COSMOS 2234 (GLONASS)","1 22512U 93010A   16013.82808543 +.00000094 +00000-0 +00000-0 0  9997","2 22512 064.0577 201.1196 0019878 201.1274 125.7084 02.13103553177996","1993-010A","22512","25507.900","675.727","19180.470","19079.060"
"GENERATED VIA SPACETRACK.ORG API","JSPOC","23396","COSMOS 2295 (GLONASS)","PAYLOAD","U","94076A","2016-01-13 19:52:26","581152","2.1310307","0.0038678","63.9842","200.5219","186.7206","139.227","0","999","16436","0","9.4e-07","0","1980270","0 COSMOS 2295 (GLONASS)","1 23396U 94076A   16013.82808543 +.00000094 +00000-0 +00000-0 0  9991","2 23396 063.9842 200.5219 0038678 186.7206 139.2270 02.13103070164369","1994-076A","23396","25507.939","675.729","19228.463","19031.144"
"GENERATED VIA SPACETRACK.ORG API","JSPOC","26545","SAUDISAT 1A","PAYLOAD","U","00057A","2016-01-13 19:52:26","906880","14.84418785","0.0048461","64.5545","260.77","302.5522","57.0909","0","999","82710","6.736e-05","4.25e-06","0","1980270","0 SAUDISAT 1A","1 26545U 00057A   16013.82808920 +.00000425 +00000-0 +67360-4 0  9999","2 26545 064.5545 260.7700 0048461 302.5522 057.0909 14.84418785827105","2000-057A","26545","6993.547","97.007","649.304","581.521"
"GENERATED VIA SPACETRACK.ORG API","JSPOC","26690","NAVSTAR 50 (USA 156)","PAYLOAD","U","01004A","2016-01-13 19:52:26","988960","2.00564951","0.0167143","53.0007","179.571","250.2552","286.666","0","999","10958","0","7.4e-07","0","1980270","0 NAVSTAR 50 (USA 156)","1 26690U 01004A   16013.82809015 +.00000074 +00000-0 +00000-0 0  9993","2 26690 053.0007 179.5710 0167143 250.2552 286.6660 02.00564951109582","2001-004A","26690","26560.228","717.971","20626.029","19738.158"
"GENERATED VIA SPACETRACK.ORG API","JSPOC","40362","YAOGAN 26","PAYLOAD","U","14088A","2016-01-13 19:52:29","460864","15.26570531","0.0005333","97.4026","93.1053","67.8009","71.0522","0","999","5837","0.00019319","4.981e-05","0","1979880","0 YAOGAN 26","1 40362U 14088A   16013.82811876  .00004981  00000-0  19319-3 0  9996","2 40362  97.4026  93.1053 0005333  67.8009  71.0522 15.26570531 58375","2014-088A","40362","6864.210","94.329","489.736","482.414"
"GENERATED VIA SPACETRACK.ORG API","JSPOC","39092","BRITE-U UNIBRITE","PAYLOAD","U","13009G","2016-01-13 19:52:42","176352","14.34818882","0.0010236","98.5885","216.2235","48.0481","312.1575","0","999","15084","4.3909e-05","8e-07","0","1980270","0 BRITE-U UNIBRITE","1 39092U 13009G   16013.82826593 +.00000080 +00000-0 +43909-4 0  9997","2 39092 098.5885 216.2235 0010236 048.0481 312.1575 14.34818882150845","2013-009G","39092","7153.805","100.361","782.992","768.347"
"GENERATED VIA SPACETRACK.ORG API","JSPOC","4362","NIMBUS 4","PAYLOAD","U","70025A","2016-01-13 19:52:43","432608","13.44571627","0.0006848","100.0598","273.5743","270.1621","132.7909","0","999","24515","4.0783e-05","-2.2e-07","0","1980270","0 NIMBUS 4","1  4362U 70025A   16013.82828047 -.00000022 +00000-0 +40783-4 0  9990","2  4362 100.0598 273.5743 0006848 270.1621 132.7909 13.44571627245154","1970-025A","4362","7470.434","107.097","1097.415","1087.184"
"GENERATED VIA SPACETRACK.ORG API","JSPOC","14453","SL-3 R/B","ROCKET BODY","U","83109B","2016-01-13 19:52:47","896032","14.24632691","0.0105724","81.1674","269.7611","128.6699","232.3998","0","999","67336","3.5742e-05","1.02e-06","0","1980270","0 SL-3 R/B","1 14453U 83109B   16013.82833213 +.00000102 +00000-0 +35742-4 0  9997","2 14453 081.1674 269.7611 0105724 128.6699 232.3998 14.24632691673367","1983-109B","14453","7187.864","101.078","885.722","733.736"
"GENERATED VIA SPACETRACK.ORG API","JSPOC","16952","COSMOS 1777","PAYLOAD","U","86070A","2016-01-13 19:52:52","192704","14.32987331","0.0027032","74.0049","255.0215","222.3309","186.2362","0","999","53340","3.3234e-05","6.5e-07","0","1980270","0 COSMOS 1777","1 16952U 86070A   16013.82838186 +.00000065 +00000-0 +33234-4 0  9999","2 16952 074.0049 255.0215 0027032 222.3309 186.2362 14.32987331533408","1986-070A","16952","7159.899","100.489","801.119","762.410"
"GENERATED VIA SPACETRACK.ORG API","JSPOC","40338","YAOGAN 25A","PAYLOAD","U","14080A","2016-01-13 19:52:54","724224","13.45152721","0.00259","63.4105","16.305","339.3236","20.6742","0","999","5368","0","-9e-07","0","1979967","0 YAOGAN 25A","1 40338U 14080A   16013.82841116 -.00000090  00000-0  00000+0 0  9992","2 40338  63.4105  16.3050 0025900 339.3236  20.6742 13.45152721 53683","2014-080A","40338","7468.283","107.051","1109.491","1070.805"
"GENERATED VIA SPACETRACK.ORG API","JSPOC","9931","ESA/GOES","PAYLOAD","U","77029A","2016-01-13 19:53:02","778432","1.961809","0.6609449","27.6747","24.6199","228.7222","52.1261","0","999","27716","0","-5.55e-06","0","1980046","0 ESA/GOES","1 09931U 77029A   16013.82850438 -.00000555  00000-0  00000+0 0  9991","2 09931  27.6747  24.6199 6609449 228.7222  52.1261  1.96180900277165","1977-029A","9931","26954.463","734.016","38391.743","2760.913"
"GENERATED VIA SPACETRACK.ORG API","JSPOC","26387","SL-8 R/B","ROCKET BODY","U","00033D","2016-01-13 19:53:04","903008","14.68070335","0.0026508","98.0382","83.4067","186.9233","309.0579","0","999","8921","6.2334e-05","3.1e-06","0","1980270","0 SL-8 R/B","1 26387U 00033D   16013.82852897 +.00000310 +00000-0 +62334-4 0  9998","2 26387 098.0382 083.4067 0026508 186.9233 309.0579 14.68070335089219","2000-033D","26387","7045.372","98.087","685.912","648.561"
"GENERATED VIA SPACETRACK.ORG API","JSPOC","40340","YAOGAN 25C","PAYLOAD","U","14080C","2016-01-13 19:53:11","597280","13.45152595","0.0025918","63.4078","17.1513","339.5399","20.4591","0","999","5366","0","-9e-07","0","1979967","0 YAOGAN 25C","1 40340U 14080C   16013.82860645 -.00000090  00000-0  00000+0 0  9993","2 40340  63.4078  17.1513 0025918 339.5399  20.4591 13.45152595 53666","2014-080C","40340","7468.283","107.051","1109.504","1070.792"
"GENERATED VIA SPACETRACK.ORG API","JSPOC","40339","YAOGAN 25B","PAYLOAD","U","14080B","2016-01-13 19:53:14","105472","13.45152465","0.0025956","63.4095","16.314","339.422","20.5761","0","999","5368","0","-9e-07","0","1979937","0 YAOGAN 25B","1 40339U 14080B   16013.82863548 -.00000090  00000-0  00000+0 0  9996","2 40339  63.4095  16.3140 0025956 339.4220  20.5761 13.45152465 53682","2014-080B","40339","7468.284","107.051","1109.533","1070.764"
